ONEWEB-0256             
1 48974U 21060H   23225.49453639  .00000183  00000+0  44513-3 0  9999
2 48974  87.8993  75.5619 0001495  79.7358 280.3941 13.16595755104244
ONEWEB-0257             
1 48975U 21060J   23225.52830601  .00000011  00000+0 -42959-5 0  9997
2 48975  87.8972  75.5301 0001522  88.6198 271.5107 13.16597161104207
ONEWEB-0258             
1 48976U 21060K   23225.53043857  .00000072  00000+0  15389-3 0  9999
2 48976  87.8979  75.5567 0001879  88.3883 271.7463 13.16592516104208
ONEWEB-0259             
1 48977U 21060L   23225.52408511  .00000054  00000+0  10792-3 0  9994
2 48977  87.8979  75.5418 0002080  93.0282 267.1087 13.16596536104246
ONEWEB-0260             
1 48978U 21060M   23225.51775380  .00000110  00000+0  25291-3 0  9998
2 48978  87.9081  75.5665 0000899  87.0391 273.0843 13.16592159104216
ONEWEB-0261             
1 48979U 21060N   23226.01596939  .00000024  00000+0  28716-4 0  9996
2 48979  87.8967  75.4161 0001651  99.1314 261.0004 13.16592616104354
ONEWEB-0262             
1 48980U 21060P   23225.99699021  .00002502  00000+0  65094-2 0  9991
2 48980  87.8985  75.4326 0002085  93.4742 266.6628 13.16583253104319
ONEWEB-0263             
1 48981U 21060Q   23225.49664581  .00000137  00000+0  32485-3 0  9991
2 48981  87.8992  75.5484 0001911 102.9598 257.1746 13.16592866104211
